[{"OBJECT_NAME":"GEESAT-3 01","OBJECT_ID":"2024-159A","EPOCH":"2026-03-09T22:55:44.243616","MEAN_MOTION":14.83820553,"ECCENTRICITY":0.00031646,"INCLINATION":49.9988,"RA_OF_ASC_NODE":183.2096,"ARG_OF_PERICENTER":229.1953,"MEAN_ANOMALY":130.8711,"EPHEMERIS_TYPE":0,"CLASSIFICATION_TYPE":"U","NORAD_CAT_ID":61011,"ELEMENT_SET_NO":999,"REV_AT_EPOCH":8194,"BSTAR":0.00046731486,"MEAN_MOTION_DOT":3.69e-5,"MEAN_MOTION_DDOT":0},{"OBJECT_NAME":"SL-14 R\/B","OBJECT_ID":"1993-024B","EPOCH":"2026-03-09T22:00:37.326816","MEAN_MOTION":14.80092489,"ECCENTRICITY":0.00222198,"INCLINATION":82.5241,"RA_OF_ASC_NODE":17.5624,"ARG_OF_PERICENTER":344.4145,"MEAN_ANOMALY":15.6381,"EPHEMERIS_TYPE":0,"CLASSIFICATION_TYPE":"U","NORAD_CAT_ID":22627,"ELEMENT_SET_NO":999,"REV_AT_EPOCH":77319,"BSTAR":7.9710522e-5,"MEAN_MOTION_DOT":6.29e-6,"MEAN_MOTION_DDOT":0}]
